[{"OBJECT_NAME":"ONEWEB-0393","OBJECT_ID":"2021-132E","EPOCH":"2026-03-09T21:08:46.449888","MEAN_MOTION":13.17649696,"ECCENTRICITY":0.00018232,"INCLINATION":87.9161,"RA_OF_ASC_NODE":25.5814,"ARG_OF_PERICENTER":73.9897,"MEAN_ANOMALY":286.1436,"EPHEMERIS_TYPE":0,"CLASSIFICATION_TYPE":"U","NORAD_CAT_ID":50473,"ELEMENT_SET_NO":999,"REV_AT_EPOCH":20503,"BSTAR":-0.00030494445,"MEAN_MOTION_DOT":-1.06e-6,"MEAN_MOTION_DDOT":0},{"OBJECT_NAME":"FENGYUN 1C DEB","OBJECT_ID":"1999-025DPZ","EPOCH":"2026-03-08T15:06:28.474272","MEAN_MOTION":13.57858696,"ECCENTRICITY":0.02984508,"INCLINATION":101.8789,"RA_OF_ASC_NODE":5.5893,"ARG_OF_PERICENTER":96.2641,"MEAN_ANOMALY":267.2569,"EPHEMERIS_TYPE":0,"CLASSIFICATION_TYPE":"U","NORAD_CAT_ID":35217,"ELEMENT_SET_NO":999,"REV_AT_EPOCH":62385,"BSTAR":0.0031196759,"MEAN_MOTION_DOT":2.948e-5,"MEAN_MOTION_DDOT":0}]
